IRIDIUM 159             
1 43578U 18061K   24315.45303485  .00000540  00000+0  18566-3 0  9997
2 43578  86.3925 300.6438 0002152  90.3570 269.7873 14.34215970329710
IRIDIUM 180             
1 43922U 19002A   24315.24322606  .00000400  00000+0  13579-3 0  9993
2 43922  86.3990 237.5763 0002120  81.4964 278.6472 14.34220020305290
IRIDIUM 176             
1 43923U 19002B   24315.52025633  .00005164  00000+0  81521-3 0  9999
2 43923  86.6113 237.4701 0002408  95.7636 264.3855 14.72222209313373
IRIDIUM 168             
1 43924U 19002C   24315.51595615  .00000165  00000+0  51788-4 0  9990
2 43924  86.3989 237.5233 0002344  84.9525 275.1938 14.34214234305313
IRIDIUM 173             
1 43925U 19002D   24315.50327366  .00001676  00000+0  59137-3 0  9999
2 43925  86.3990 237.4412 0002178  81.7237 278.4205 14.34217404305308
IRIDIUM 169             
1 43926U 19002E   24315.60975909  .00001571  00000+0  50729-3 0  9995
2 43926  86.4196 269.0259 0004158  91.4878 268.6796 14.38592524306329
IRIDIUM 172             
1 43927U 19002F   24315.49693352  .00000166  00000+0  52190-4 0  9996
2 43927  86.3993 237.4505 0002178  85.7406 274.4038 14.34214211305301
IRIDIUM 175             
1 43928U 19002G   24315.58284619  .00004571  00000+0  72093-3 0  9996
2 43928  86.1555 202.3667 0003270  68.8833 291.2733 14.72232027313376
